STARLINK-35621          
1 66156U 25240L   25311.13267482  .00980034  00000+0  52302-2 0  9999
2 66156  53.1519 275.6917 0014303 265.6813  94.2574 15.77496264  3172
STARLINK-35594          
1 66157U 25240M   25311.70372795  .00181698  00000+0  12128-2 0  9998
2 66157  53.1532 272.8568 0000987  85.3108 274.8024 15.74294541  3263
STARLINK-35587          
1 66158U 25240N   25311.00534441  .11111521  00000+0  47346-1 0  9999
2 66158  53.1532 276.3218 0007413 332.3140  27.7487 15.79953569  3150
STARLINK-35586          
1 66159U 25240P   25311.38493000  .00959135  00000+0  49917-2 0  9992
2 66159  53.1527 274.4194 0004159  49.0516 311.0865 15.78185321  3218
STARLINK-35636          
1 66160U 25240Q   25310.62327443  .09022555  15857+0  52037-1 0  9995
2 66160  53.1513 278.2051 0040389   6.7818 353.3744 15.84565419  3097
STARLINK-35635          
1 66161U 25240R   25311.06850278 -.00619883  00000+0 -44575-2 0  9994
2 66161  53.1528 276.0034 0002920 146.7554 213.3650 15.74634607  3166
STARLINK-35633          
1 66162U 25240S   25311.76620997  .00016196  00000+0  11501-3 0  9995
2 66162  53.1565 272.5334 0003517   5.5658 354.5400 15.74116281  3278
STARLINK-35607          
1 66163U 25240T   25311.70238525  .00339779  00000+0  22150-2 0  9998
2 66163  53.1529 272.8455 0003103  26.7491 333.3688 15.74364783  3261
STARLINK-35614          
1 66164U 25240U   25311.13030316 -.00308093  00000+0 -21618-2 0  9999
2 66164  53.1538 275.6800 0000945  92.7186 267.3942 15.74351687  3170
STARLINK-35575          
1 66165U 25240V   25311.12999867  .00628111  00000+0  35420-2 0  9994
2 66165  53.1528 275.6787 0004382  14.2717 345.8427 15.76880638  3177
STARLINK-35624          
1 66166U 25240W   25310.62177754  .00590819  00000+0  33755-2 0  9994
2 66166  53.1525 278.1927 0001149 131.2429 228.8691 15.76684107  3094
STARLINK-35641          
1 66167U 25240X   25311.76246478  .00471136  00000+0  27267-2 0  9992
2 66167  53.1522 272.5065 0011121 268.9931  90.9816 15.76668453  3273
