CCSDS_OMM_VERS = 2.0
CREATION_DATE  = 
ORIGINATOR     = 

OBJECT_NAME    = STARLINK-35621
OBJECT_ID      = 2025-240L
CENTER_NAME    = EARTH
REF_FRAME      = TEME
TIME_SYSTEM    = UTC
MEAN_ELEMENT_THEORY = SGP/SGP4

EPOCH          = 2025-11-07T03:11:03.104448
MEAN_MOTION    = 15.77496264
ECCENTRICITY   = .00143034
INCLINATION    = 53.1519
RA_OF_ASC_NODE = 275.6917
ARG_OF_PERICENTER = 265.6813
MEAN_ANOMALY   = 94.2574

EPHEMERIS_TYPE = 0
CLASSIFICATION_TYPE = U
NORAD_CAT_ID   = 66156
ELEMENT_SET_NO = 999
REV_AT_EPOCH   = 317
BSTAR          = .52302316E-2
MEAN_MOTION_DOT = .980034E-2
MEAN_MOTION_DDOT = 0

CCSDS_OMM_VERS = 2.0
CREATION_DATE  = 
ORIGINATOR     = 

OBJECT_NAME    = STARLINK-35594
OBJECT_ID      = 2025-240M
CENTER_NAME    = EARTH
REF_FRAME      = TEME
TIME_SYSTEM    = UTC
MEAN_ELEMENT_THEORY = SGP/SGP4

EPOCH          = 2025-11-07T16:53:22.094880
MEAN_MOTION    = 15.74294541
ECCENTRICITY   = .0000987
INCLINATION    = 53.1532
RA_OF_ASC_NODE = 272.8568
ARG_OF_PERICENTER = 85.3108
MEAN_ANOMALY   = 274.8024

EPHEMERIS_TYPE = 0
CLASSIFICATION_TYPE = U
NORAD_CAT_ID   = 66157
ELEMENT_SET_NO = 999
REV_AT_EPOCH   = 326
BSTAR          = .12128E-2
MEAN_MOTION_DOT = .181698E-2
MEAN_MOTION_DDOT = 0

CCSDS_OMM_VERS = 2.0
CREATION_DATE  = 
ORIGINATOR     = 

OBJECT_NAME    = STARLINK-35587
OBJECT_ID      = 2025-240N
CENTER_NAME    = EARTH
REF_FRAME      = TEME
TIME_SYSTEM    = UTC
MEAN_ELEMENT_THEORY = SGP/SGP4

EPOCH          = 2025-11-07T00:07:41.757024
MEAN_MOTION    = 15.79953569
ECCENTRICITY   = .00074137
INCLINATION    = 53.1532
RA_OF_ASC_NODE = 276.3218
ARG_OF_PERICENTER = 332.3140
MEAN_ANOMALY   = 27.7487

EPHEMERIS_TYPE = 0
CLASSIFICATION_TYPE = U
NORAD_CAT_ID   = 66158
ELEMENT_SET_NO = 999
REV_AT_EPOCH   = 315
BSTAR          = .47346352E-1
MEAN_MOTION_DOT = .11111521E+0
MEAN_MOTION_DDOT = 0

CCSDS_OMM_VERS = 2.0
CREATION_DATE  = 
ORIGINATOR     = 

OBJECT_NAME    = STARLINK-35586
OBJECT_ID      = 2025-240P
CENTER_NAME    = EARTH
REF_FRAME      = TEME
TIME_SYSTEM    = UTC
MEAN_ELEMENT_THEORY = SGP/SGP4

EPOCH          = 2025-11-07T09:14:17.952000
MEAN_MOTION    = 15.78185321
ECCENTRICITY   = .0004159
INCLINATION    = 53.1527
RA_OF_ASC_NODE = 274.4194
ARG_OF_PERICENTER = 49.0516
MEAN_ANOMALY   = 311.0865

EPHEMERIS_TYPE = 0
CLASSIFICATION_TYPE = U
NORAD_CAT_ID   = 66159
ELEMENT_SET_NO = 999
REV_AT_EPOCH   = 321
BSTAR          = .49917E-2
MEAN_MOTION_DOT = .959135E-2
MEAN_MOTION_DDOT = 0

CCSDS_OMM_VERS = 2.0
CREATION_DATE  = 
ORIGINATOR     = 

OBJECT_NAME    = STARLINK-35636
OBJECT_ID      = 2025-240Q
CENTER_NAME    = EARTH
REF_FRAME      = TEME
TIME_SYSTEM    = UTC
MEAN_ELEMENT_THEORY = SGP/SGP4

EPOCH          = 2025-11-06T14:57:30.910752
MEAN_MOTION    = 15.84565419
ECCENTRICITY   = .00403897
INCLINATION    = 53.1513
RA_OF_ASC_NODE = 278.2051
ARG_OF_PERICENTER = 6.7818
MEAN_ANOMALY   = 353.3744

EPHEMERIS_TYPE = 0
CLASSIFICATION_TYPE = U
NORAD_CAT_ID   = 66160
ELEMENT_SET_NO = 999
REV_AT_EPOCH   = 309
BSTAR          = .5203716E-1
MEAN_MOTION_DOT = .9022555E-1
MEAN_MOTION_DDOT = .15856989E+0

CCSDS_OMM_VERS = 2.0
CREATION_DATE  = 
ORIGINATOR     = 

OBJECT_NAME    = STARLINK-35635
OBJECT_ID      = 2025-240R
CENTER_NAME    = EARTH
REF_FRAME      = TEME
TIME_SYSTEM    = UTC
MEAN_ELEMENT_THEORY = SGP/SGP4

EPOCH          = 2025-11-07T01:38:38.640192
MEAN_MOTION    = 15.74634607
ECCENTRICITY   = .00029205
INCLINATION    = 53.1528
RA_OF_ASC_NODE = 276.0034
ARG_OF_PERICENTER = 146.7554
MEAN_ANOMALY   = 213.3650

EPHEMERIS_TYPE = 0
CLASSIFICATION_TYPE = U
NORAD_CAT_ID   = 66161
ELEMENT_SET_NO = 999
REV_AT_EPOCH   = 316
BSTAR          = -.44574519E-2
MEAN_MOTION_DOT = -.619883E-2
MEAN_MOTION_DDOT = 0

CCSDS_OMM_VERS = 2.0
CREATION_DATE  = 
ORIGINATOR     = 

OBJECT_NAME    = STARLINK-35633
OBJECT_ID      = 2025-240S
CENTER_NAME    = EARTH
REF_FRAME      = TEME
TIME_SYSTEM    = UTC
MEAN_ELEMENT_THEORY = SGP/SGP4

EPOCH          = 2025-11-07T18:23:20.541408
MEAN_MOTION    = 15.74116281
ECCENTRICITY   = .0003517
INCLINATION    = 53.1565
RA_OF_ASC_NODE = 272.5334
ARG_OF_PERICENTER = 5.5658
MEAN_ANOMALY   = 354.5400

EPHEMERIS_TYPE = 0
CLASSIFICATION_TYPE = U
NORAD_CAT_ID   = 66162
ELEMENT_SET_NO = 999
REV_AT_EPOCH   = 327
BSTAR          = .11501E-3
MEAN_MOTION_DOT = .16196E-3
MEAN_MOTION_DDOT = 0

CCSDS_OMM_VERS = 2.0
CREATION_DATE  = 
ORIGINATOR     = 

OBJECT_NAME    = STARLINK-35607
OBJECT_ID      = 2025-240T
CENTER_NAME    = EARTH
REF_FRAME      = TEME
TIME_SYSTEM    = UTC
MEAN_ELEMENT_THEORY = SGP/SGP4

EPOCH          = 2025-11-07T16:51:26.085600
MEAN_MOTION    = 15.74364783
ECCENTRICITY   = .0003103
INCLINATION    = 53.1529
RA_OF_ASC_NODE = 272.8455
ARG_OF_PERICENTER = 26.7491
MEAN_ANOMALY   = 333.3688

EPHEMERIS_TYPE = 0
CLASSIFICATION_TYPE = U
NORAD_CAT_ID   = 66163
ELEMENT_SET_NO = 999
REV_AT_EPOCH   = 326
BSTAR          = .2215E-2
MEAN_MOTION_DOT = .339779E-2
MEAN_MOTION_DDOT = 0

CCSDS_OMM_VERS = 2.0
CREATION_DATE  = 
ORIGINATOR     = 

OBJECT_NAME    = STARLINK-35614
OBJECT_ID      = 2025-240U
CENTER_NAME    = EARTH
REF_FRAME      = TEME
TIME_SYSTEM    = UTC
MEAN_ELEMENT_THEORY = SGP/SGP4

EPOCH          = 2025-11-07T03:07:38.193024
MEAN_MOTION    = 15.74351687
ECCENTRICITY   = .00009453
INCLINATION    = 53.1538
RA_OF_ASC_NODE = 275.6800
ARG_OF_PERICENTER = 92.7186
MEAN_ANOMALY   = 267.3942

EPHEMERIS_TYPE = 0
CLASSIFICATION_TYPE = U
NORAD_CAT_ID   = 66164
ELEMENT_SET_NO = 999
REV_AT_EPOCH   = 317
BSTAR          = -.21617564E-2
MEAN_MOTION_DOT = -.308093E-2
MEAN_MOTION_DDOT = 0

CCSDS_OMM_VERS = 2.0
CREATION_DATE  = 
ORIGINATOR     = 

OBJECT_NAME    = STARLINK-35575
OBJECT_ID      = 2025-240V
CENTER_NAME    = EARTH
REF_FRAME      = TEME
TIME_SYSTEM    = UTC
MEAN_ELEMENT_THEORY = SGP/SGP4

EPOCH          = 2025-11-07T03:07:11.885088
MEAN_MOTION    = 15.76880638
ECCENTRICITY   = .0004382
INCLINATION    = 53.1528
RA_OF_ASC_NODE = 275.6787
ARG_OF_PERICENTER = 14.2717
MEAN_ANOMALY   = 345.8427

EPHEMERIS_TYPE = 0
CLASSIFICATION_TYPE = U
NORAD_CAT_ID   = 66165
ELEMENT_SET_NO = 999
REV_AT_EPOCH   = 317
BSTAR          = .3542E-2
MEAN_MOTION_DOT = .628111E-2
MEAN_MOTION_DDOT = 0

CCSDS_OMM_VERS = 2.0
CREATION_DATE  = 
ORIGINATOR     = 

OBJECT_NAME    = STARLINK-35624
OBJECT_ID      = 2025-240W
CENTER_NAME    = EARTH
REF_FRAME      = TEME
TIME_SYSTEM    = UTC
MEAN_ELEMENT_THEORY = SGP/SGP4

EPOCH          = 2025-11-06T14:55:21.579456
MEAN_MOTION    = 15.76684107
ECCENTRICITY   = .0001149
INCLINATION    = 53.1525
RA_OF_ASC_NODE = 278.1927
ARG_OF_PERICENTER = 131.2429
MEAN_ANOMALY   = 228.8691

EPHEMERIS_TYPE = 0
CLASSIFICATION_TYPE = U
NORAD_CAT_ID   = 66166
ELEMENT_SET_NO = 999
REV_AT_EPOCH   = 309
BSTAR          = .33754611E-2
MEAN_MOTION_DOT = .590819E-2
MEAN_MOTION_DDOT = 0

CCSDS_OMM_VERS = 2.0
CREATION_DATE  = 
ORIGINATOR     = 

OBJECT_NAME    = STARLINK-35641
OBJECT_ID      = 2025-240X
CENTER_NAME    = EARTH
REF_FRAME      = TEME
TIME_SYSTEM    = UTC
MEAN_ELEMENT_THEORY = SGP/SGP4

EPOCH          = 2025-11-07T18:17:56.956992
MEAN_MOTION    = 15.76668453
ECCENTRICITY   = .0011121
INCLINATION    = 53.1522
RA_OF_ASC_NODE = 272.5065
ARG_OF_PERICENTER = 268.9931
MEAN_ANOMALY   = 90.9816

EPHEMERIS_TYPE = 0
CLASSIFICATION_TYPE = U
NORAD_CAT_ID   = 66167
ELEMENT_SET_NO = 999
REV_AT_EPOCH   = 327
BSTAR          = .27267E-2
MEAN_MOTION_DOT = .471136E-2
MEAN_MOTION_DDOT = 0

